ONEWEB-0564             
1 55801U 23029F   25213.36524282  .00000104  00000+0  22321-3 0  9997
2 55801  87.9282 338.1980 0001926 111.0841 249.0498 13.20771885118933
ONEWEB-0638             
1 55802U 23029G   25213.85061596  .00000181  00000+0  45317-3 0  9991
2 55802  87.9074 353.3118 0002280 105.1709 254.9673 13.14502922118157
ONEWEB-0639             
1 55803U 23029H   25213.46411758 -.00000063  00000+0 -18950-3 0  9992
2 55803  87.9240   8.5416 0002564  70.3127 289.8282 13.19724779116731
ONEWEB-0640             
1 55804U 23029J   25213.47952735  .00000041  00000+0  77329-4 0  9999
2 55804  87.9072 353.3724 0002570  97.7347 262.4074 13.14504614117413
ONEWEB-0641             
1 55805U 23029K   25213.45938474  .00000067  00000+0  13553-3 0  9998
2 55805  87.9240   8.5140 0001927  87.8353 272.3001 13.19724544116740
ONEWEB-0642             
1 55806U 23029L   25213.45465988  .00000094  00000+0  20203-3 0  9994
2 55806  87.9233   8.5521 0002178  69.3075 290.8291 13.19725902116735
ONEWEB-0643             
1 55807U 23029M   25213.37328231  .00000307  00000+0  79265-3 0  9994
2 55807  87.9071 353.3762 0001739  72.3434 287.7886 13.14504586117373
ONEWEB-0644             
1 55808U 23029N   25213.37409823  .00000122  00000+0  27202-3 0  9991
2 55808  87.9237   8.5738 0001975  78.6752 281.4602 13.19725840116722
ONEWEB-0645             
1 55809U 23029P   25213.52178204  .00000152  00000+0  34693-3 0  9990
2 55809  87.9222   8.5362 0002156  90.8967 269.2413 13.19725468116748
ONEWEB-0646             
1 55810U 23029Q   25213.47598361  .00000109  00000+0  24010-3 0  9990
2 55810  87.9223   8.5367 0001791  86.6954 273.4384 13.19725526116726
ONEWEB-0648             
1 55811U 23029R   25213.34158002 -.00000173  00000+0 -50131-3 0  9997
2 55811  87.9064 353.3577 0002536  78.8689 281.2725 13.14501958117374
ONEWEB-0649             
1 55812U 23029S   25213.51466689 -.00000063  00000+0 -19076-3 0  9991
2 55812  87.9232   8.5227 0002165  83.8473 276.2906 13.19725932116760
ONEWEB-0650             
1 55813U 23029T   25213.35829256 -.00000131  00000+0 -36044-3 0  9997
2 55813  87.9238   8.5643 0001882  88.2684 271.8664 13.19725582116715
ONEWEB-0652             
1 55814U 23029U   25213.39864892  .00000074  00000+0  16595-3 0  9990
2 55814  87.9074 353.3570 0001750 101.8809 258.2517 13.14504592117357
ONEWEB-0653             
1 55815U 23029V   25213.45892522  .00000293  00000+0  75712-3 0  9998
2 55815  87.9072 353.3350 0001969 102.3997 257.7353 13.14501782117392
ONEWEB-0654             
1 55816U 23029W   25213.45416354  .00000268  00000+0  68932-3 0  9992
2 55816  87.9067 353.3349 0001805 109.8905 250.2419 13.14502507117415
ONEWEB-0656             
1 55817U 23029X   25213.35891265  .00000084  00000+0  17358-3 0  9992
2 55817  87.9295 338.1426 0001863 113.5520 246.5809 13.20770989118932
