[{"OBJECT_NAME":"ONEWEB-0564","OBJECT_ID":"2023-029F","EPOCH":"2025-08-01T08:45:56.979648","MEAN_MOTION":13.20771885,"ECCENTRICITY":0.0001926,"INCLINATION":87.9282,"RA_OF_ASC_NODE":338.198,"ARG_OF_PERICENTER":111.0841,"MEAN_ANOMALY":249.0498,"EPHEMERIS_TYPE":0,"CLASSIFICATION_TYPE":"U","NORAD_CAT_ID":55801,"ELEMENT_SET_NO":999,"REV_AT_EPOCH":11893,"BSTAR":0.00022321,"MEAN_MOTION_DOT":1.04e-6,"MEAN_MOTION_DDOT":0},{"OBJECT_NAME":"ONEWEB-0638","OBJECT_ID":"2023-029G","EPOCH":"2025-08-01T20:24:53.218944","MEAN_MOTION":13.14502922,"ECCENTRICITY":0.000228,"INCLINATION":87.9074,"RA_OF_ASC_NODE":353.3118,"ARG_OF_PERICENTER":105.1709,"MEAN_ANOMALY":254.9673,"EPHEMERIS_TYPE":0,"CLASSIFICATION_TYPE":"U","NORAD_CAT_ID":55802,"ELEMENT_SET_NO":999,"REV_AT_EPOCH":11815,"BSTAR":0.00045317,"MEAN_MOTION_DOT":1.81e-6,"MEAN_MOTION_DDOT":0},{"OBJECT_NAME":"ONEWEB-0639","OBJECT_ID":"2023-029H","EPOCH":"2025-08-01T11:08:19.758912","MEAN_MOTION":13.19724779,"ECCENTRICITY":0.0002564,"INCLINATION":87.924,"RA_OF_ASC_NODE":8.5416,"ARG_OF_PERICENTER":70.3127,"MEAN_ANOMALY":289.8282,"EPHEMERIS_TYPE":0,"CLASSIFICATION_TYPE":"U","NORAD_CAT_ID":55803,"ELEMENT_SET_NO":999,"REV_AT_EPOCH":11673,"BSTAR":-0.0001895,"MEAN_MOTION_DOT":-6.3e-7,"MEAN_MOTION_DDOT":0},{"OBJECT_NAME":"ONEWEB-0640","OBJECT_ID":"2023-029J","EPOCH":"2025-08-01T11:30:31.163040","MEAN_MOTION":13.14504614,"ECCENTRICITY":0.000257,"INCLINATION":87.9072,"RA_OF_ASC_NODE":353.3724,"ARG_OF_PERICENTER":97.7347,"MEAN_ANOMALY":262.4074,"EPHEMERIS_TYPE":0,"CLASSIFICATION_TYPE":"U","NORAD_CAT_ID":55804,"ELEMENT_SET_NO":999,"REV_AT_EPOCH":11741,"BSTAR":7.7329e-5,"MEAN_MOTION_DOT":4.1e-7,"MEAN_MOTION_DDOT":0},{"OBJECT_NAME":"ONEWEB-0641","OBJECT_ID":"2023-029K","EPOCH":"2025-08-01T11:01:30.841536","MEAN_MOTION":13.19724544,"ECCENTRICITY":0.0001927,"INCLINATION":87.924,"RA_OF_ASC_NODE":8.514,"ARG_OF_PERICENTER":87.8353,"MEAN_ANOMALY":272.3001,"EPHEMERIS_TYPE":0,"CLASSIFICATION_TYPE":"U","NORAD_CAT_ID":55805,"ELEMENT_SET_NO":999,"REV_AT_EPOCH":11674,"BSTAR":0.00013553,"MEAN_MOTION_DOT":6.7e-7,"MEAN_MOTION_DDOT":0},{"OBJECT_NAME":"ONEWEB-0642","OBJECT_ID":"2023-029L","EPOCH":"2025-08-01T10:54:42.613632","MEAN_MOTION":13.19725902,"ECCENTRICITY":0.0002178,"INCLINATION":87.9233,"RA_OF_ASC_NODE":8.5521,"ARG_OF_PERICENTER":69.3075,"MEAN_ANOMALY":290.8291,"EPHEMERIS_TYPE":0,"CLASSIFICATION_TYPE":"U","NORAD_CAT_ID":55806,"ELEMENT_SET_NO":999,"REV_AT_EPOCH":11673,"BSTAR":0.00020203,"MEAN_MOTION_DOT":9.4e-7,"MEAN_MOTION_DDOT":0},{"OBJECT_NAME":"ONEWEB-0643","OBJECT_ID":"2023-029M","EPOCH":"2025-08-01T08:57:31.591584","MEAN_MOTION":13.14504586,"ECCENTRICITY":0.0001739,"INCLINATION":87.9071,"RA_OF_ASC_NODE":353.3762,"ARG_OF_PERICENTER":72.3434,"MEAN_ANOMALY":287.7886,"EPHEMERIS_TYPE":0,"CLASSIFICATION_TYPE":"U","NORAD_CAT_ID":55807,"ELEMENT_SET_NO":999,"REV_AT_EPOCH":11737,"BSTAR":0.00079265,"MEAN_MOTION_DOT":3.07e-6,"MEAN_MOTION_DDOT":0},{"OBJECT_NAME":"ONEWEB-0644","OBJECT_ID":"2023-029N","EPOCH":"2025-08-01T08:58:42.087072","MEAN_MOTION":13.1972584,"ECCENTRICITY":0.0001975,"INCLINATION":87.9237,"RA_OF_ASC_NODE":8.5738,"ARG_OF_PERICENTER":78.6752,"MEAN_ANOMALY":281.4602,"EPHEMERIS_TYPE":0,"CLASSIFICATION_TYPE":"U","NORAD_CAT_ID":55808,"ELEMENT_SET_NO":999,"REV_AT_EPOCH":11672,"BSTAR":0.00027202,"MEAN_MOTION_DOT":1.22e-6,"MEAN_MOTION_DDOT":0},{"OBJECT_NAME":"ONEWEB-0645","OBJECT_ID":"2023-029P","EPOCH":"2025-08-01T12:31:21.968256","MEAN_MOTION":13.19725468,"ECCENTRICITY":0.0002156,"INCLINATION":87.9222,"RA_OF_ASC_NODE":8.5362,"ARG_OF_PERICENTER":90.8967,"MEAN_ANOMALY":269.2413,"EPHEMERIS_TYPE":0,"CLASSIFICATION_TYPE":"U","NORAD_CAT_ID":55809,"ELEMENT_SET_NO":999,"REV_AT_EPOCH":11674,"BSTAR":0.00034693,"MEAN_MOTION_DOT":1.52e-6,"MEAN_MOTION_DDOT":0},{"OBJECT_NAME":"ONEWEB-0646","OBJECT_ID":"2023-029Q","EPOCH":"2025-08-01T11:25:24.983904","MEAN_MOTION":13.19725526,"ECCENTRICITY":0.0001791,"INCLINATION":87.9223,"RA_OF_ASC_NODE":8.5367,"ARG_OF_PERICENTER":86.6954,"MEAN_ANOMALY":273.4384,"EPHEMERIS_TYPE":0,"CLASSIFICATION_TYPE":"U","NORAD_CAT_ID":55810,"ELEMENT_SET_NO":999,"REV_AT_EPOCH":11672,"BSTAR":0.0002401,"MEAN_MOTION_DOT":1.09e-6,"MEAN_MOTION_DDOT":0},{"OBJECT_NAME":"ONEWEB-0648","OBJECT_ID":"2023-029R","EPOCH":"2025-08-01T08:11:52.513728","MEAN_MOTION":13.14501958,"ECCENTRICITY":0.0002536,"INCLINATION":87.9064,"RA_OF_ASC_NODE":353.3577,"ARG_OF_PERICENTER":78.8689,"MEAN_ANOMALY":281.2725,"EPHEMERIS_TYPE":0,"CLASSIFICATION_TYPE":"U","NORAD_CAT_ID":55811,"ELEMENT_SET_NO":999,"REV_AT_EPOCH":11737,"BSTAR":-0.00050131,"MEAN_MOTION_DOT":-1.73e-6,"MEAN_MOTION_DDOT":0},{"OBJECT_NAME":"ONEWEB-0649","OBJECT_ID":"2023-029S","EPOCH":"2025-08-01T12:21:07.219296","MEAN_MOTION":13.19725932,"ECCENTRICITY":0.0002165,"INCLINATION":87.9232,"RA_OF_ASC_NODE":8.5227,"ARG_OF_PERICENTER":83.8473,"MEAN_ANOMALY":276.2906,"EPHEMERIS_TYPE":0,"CLASSIFICATION_TYPE":"U","NORAD_CAT_ID":55812,"ELEMENT_SET_NO":999,"REV_AT_EPOCH":11676,"BSTAR":-0.00019076,"MEAN_MOTION_DOT":-6.3e-7,"MEAN_MOTION_DDOT":0},{"OBJECT_NAME":"ONEWEB-0650","OBJECT_ID":"2023-029T","EPOCH":"2025-08-01T08:35:56.477184","MEAN_MOTION":13.19725582,"ECCENTRICITY":0.0001882,"INCLINATION":87.9238,"RA_OF_ASC_NODE":8.5643,"ARG_OF_PERICENTER":88.2684,"MEAN_ANOMALY":271.8664,"EPHEMERIS_TYPE":0,"CLASSIFICATION_TYPE":"U","NORAD_CAT_ID":55813,"ELEMENT_SET_NO":999,"REV_AT_EPOCH":11671,"BSTAR":-0.00036044,"MEAN_MOTION_DOT":-1.31e-6,"MEAN_MOTION_DDOT":0},{"OBJECT_NAME":"ONEWEB-0652","OBJECT_ID":"2023-029U","EPOCH":"2025-08-01T09:34:03.266688","MEAN_MOTION":13.14504592,"ECCENTRICITY":0.000175,"INCLINATION":87.9074,"RA_OF_ASC_NODE":353.357,"ARG_OF_PERICENTER":101.8809,"MEAN_ANOMALY":258.2517,"EPHEMERIS_TYPE":0,"CLASSIFICATION_TYPE":"U","NORAD_CAT_ID":55814,"ELEMENT_SET_NO":999,"REV_AT_EPOCH":11735,"BSTAR":0.00016595,"MEAN_MOTION_DOT":7.4e-7,"MEAN_MOTION_DDOT":0},{"OBJECT_NAME":"ONEWEB-0653","OBJECT_ID":"2023-029V","EPOCH":"2025-08-01T11:00:51.139008","MEAN_MOTION":13.14501782,"ECCENTRICITY":0.0001969,"INCLINATION":87.9072,"RA_OF_ASC_NODE":353.335,"ARG_OF_PERICENTER":102.3997,"MEAN_ANOMALY":257.7353,"EPHEMERIS_TYPE":0,"CLASSIFICATION_TYPE":"U","NORAD_CAT_ID":55815,"ELEMENT_SET_NO":999,"REV_AT_EPOCH":11739,"BSTAR":0.00075712,"MEAN_MOTION_DOT":2.93e-6,"MEAN_MOTION_DDOT":0},{"OBJECT_NAME":"ONEWEB-0654","OBJECT_ID":"2023-029W","EPOCH":"2025-08-01T10:53:59.729856","MEAN_MOTION":13.14502507,"ECCENTRICITY":0.0001805,"INCLINATION":87.9067,"RA_OF_ASC_NODE":353.3349,"ARG_OF_PERICENTER":109.8905,"MEAN_ANOMALY":250.2419,"EPHEMERIS_TYPE":0,"CLASSIFICATION_TYPE":"U","NORAD_CAT_ID":55816,"ELEMENT_SET_NO":999,"REV_AT_EPOCH":11741,"BSTAR":0.00068932,"MEAN_MOTION_DOT":2.68e-6,"MEAN_MOTION_DDOT":0},{"OBJECT_NAME":"ONEWEB-0656","OBJECT_ID":"2023-029X","EPOCH":"2025-08-01T08:36:50.052960","MEAN_MOTION":13.20770989,"ECCENTRICITY":0.0001863,"INCLINATION":87.9295,"RA_OF_ASC_NODE":338.1426,"ARG_OF_PERICENTER":113.552,"MEAN_ANOMALY":246.5809,"EPHEMERIS_TYPE":0,"CLASSIFICATION_TYPE":"U","NORAD_CAT_ID":55817,"ELEMENT_SET_NO":999,"REV_AT_EPOCH":11893,"BSTAR":0.00017358,"MEAN_MOTION_DOT":8.4e-7,"MEAN_MOTION_DDOT":0}]
